{"type": "FeatureCollection", "features": [ {"type": "Feature", "properties": {"norad_id": 30035, "name": "FENGYUN 1C DEB", "group": "fengyun-1c-debris", "lat": -15.824283006485063, "lon": -87.80941618774301, "alt_km": 726.9376176079777, "timestamp": "2025-12-20T03:42:47.666384+00:00", "meta": {"OBJECT_NAME": "FENGYUN 1C DEB", "OBJECT_ID": "1999-025NL", "EPOCH": "2025-12-19T17:53:07.638720", "MEAN_MOTION": 14.3697806, "ECCENTRICITY": 0.0115372, "INCLINATION": 99.2713, "RA_OF_ASC_NODE": 269.0961, "ARG_OF_PERICENTER": 41.6696, "MEAN_ANOMALY": 346.3496, "EPHEMERIS_TYPE": 0, "CLASSIFICATION_TYPE": "U", "NORAD_CAT_ID": 30035, "ELEMENT_SET_NO": 999, "REV_AT_EPOCH": 99224, "BSTAR": 5.7129e-05, "MEAN_MOTION_DOT": 1.29e-06, "MEAN_MOTION_DDOT": 0}, "tle": {"line1": "1 30035U 99025NL  25353.74522730  .00000129  00000+0  57129-4 0  9993", "line2": "2 30035  99.2713 269.0961 0115372  41.6696 346.3496 14.36978060992243"}}, "geometry": {"type": "Point", "coordinates": [-87.80941618774301, -15.824283006485063]}}, {"type": "Feature", "properties": {"norad_id": 30036, "name": "FENGYUN 1C DEB", "group": "fengyun-1c-debris", "lat": -36.577596808667955, "lon": 27.241448926102773, "alt_km": 843.9605408293328, "timestamp": "2025-12-20T03:42:47.666394+00:00", "meta": {"OBJECT_NAME": "FENGYUN 1C DEB", "OBJECT_ID": "1999-025NM", "EPOCH": "2025-12-18T23:57:29.835072", "MEAN_MOTION": 14.46201849, "ECCENTRICITY": 0.01902668, "INCLINATION": 98.2522, "RA_OF_ASC_NODE": 19.9327, "ARG_OF_PERICENTER": 188.5404, "MEAN_ANOMALY": 235.6912, "EPHEMERIS_TYPE": 0, "CLASSIFICATION_TYPE": "U", "NORAD_CAT_ID": 30036, "ELEMENT_SET_NO": 999, "REV_AT_EPOCH": 99267, "BSTAR": 0.00029359262, "MEAN_MOTION_DOT": 1.263e-05, "MEAN_MOTION_DDOT": 0}, "tle": {"line1": "1 30036U 99025NM  25352.99826198  .00001263  00000+0  29359-3 0  9998", "line2": "2 30036  98.2522  19.9327 0190266 188.5404 235.6912 14.46201849992677"}}, "geometry": {"type": "Point", "coordinates": [27.241448926102773, -36.577596808667955]}}, {"type": "Feature", "properties": {"norad_id": 30037, "name": "FENGYUN 1C DEB", "group": "fengyun-1c-debris", "lat": 33.73022753307495, "lon": -36.00037386601146, "alt_km": 651.1888406626049, "timestamp": "2025-12-20T03:42:47.666404+00:00", "meta": {"OBJECT_NAME": "FENGYUN 1C DEB", "OBJECT_ID": "1999-025NN", "EPOCH": "2025-12-19T11:21:30.160800", "MEAN_MOTION": 14.34127296, "ECCENTRICITY": 0.0174142, "INCLINATION": 98.384, "RA_OF_ASC_NODE": 328.9894, "ARG_OF_PERICENTER": 35.1459, "MEAN_ANOMALY": 82.8388, "EPHEMERIS_TYPE": 0, "CLASSIFICATION_TYPE": "U", "NORAD_CAT_ID": 30037, "ELEMENT_SET_NO": 999, "REV_AT_EPOCH": 98884, "BSTAR": 0.00016435, "MEAN_MOTION_DOT": 4.99e-06, "MEAN_MOTION_DDOT": 0}, "tle": {"line1": "1 30037U 99025NN  25353.47326575  .00000499  00000+0  16435-3 0  9998", "line2": "2 30037  98.3840 328.9894 0174142  35.1459  82.8388 14.34127296988849"}}, "geometry": {"type": "Point", "coordinates": [-36.00037386601146, 33.73022753307495]}}, {"type": "Feature", "properties": {"norad_id": 30038, "name": "FENGYUN 1C DEB", "group": "fengyun-1c-debris", "lat": -25.466777711575183, "lon": 157.59420114743716, "alt_km": 868.9527803938781, "timestamp": "2025-12-20T03:42:47.666414+00:00", "meta": {"OBJECT_NAME": "FENGYUN 1C DEB", "OBJECT_ID": "1999-025NP", "EPOCH": "2025-12-19T18:59:22.252992", "MEAN_MOTION": 14.39308742, "ECCENTRICITY": 0.0258032, "INCLINATION": 98.3688, "RA_OF_ASC_NODE": 341.2592, "ARG_OF_PERICENTER": 81.6954, "MEAN_ANOMALY": 39.179, "EPHEMERIS_TYPE": 0, "CLASSIFICATION_TYPE": "U", "NORAD_CAT_ID": 30038, "ELEMENT_SET_NO": 999, "REV_AT_EPOCH": 98992, "BSTAR": 0.0001771, "MEAN_MOTION_DOT": 7.62e-06, "MEAN_MOTION_DDOT": 0}, "tle": {"line1": "1 30038U 99025NP  25353.79122978  .00000762  00000+0  17710-3 0  9995", "line2": "2 30038  98.3688 341.2592 0258032  81.6954  39.1790 14.39308742989924"}}, "geometry": {"type": "Point", "coordinates": [157.59420114743716, -25.466777711575183]}}, {"type": "Feature", "properties": {"norad_id": 30040, "name": "FENGYUN 1C DEB", "group": "fengyun-1c-debris", "lat": -81.33728493617602, "lon": 82.07260932394061, "alt_km": 753.1314790390961, "timestamp": "2025-12-20T03:42:47.666425+00:00", "meta": {"OBJECT_NAME": "FENGYUN 1C DEB", "OBJECT_ID": "1999-025NR", "EPOCH": "2025-12-18T23:59:42.027936", "MEAN_MOTION": 14.37176564, "ECCENTRICITY": 0.00323261, "INCLINATION": 98.2328, "RA_OF_ASC_NODE": 9.111, "ARG_OF_PERICENTER": 293.7752, "MEAN_ANOMALY": 127.0817, "EPHEMERIS_TYPE": 0, "CLASSIFICATION_TYPE": "U", "NORAD_CAT_ID": 30040, "ELEMENT_SET_NO": 999, "REV_AT_EPOCH": 98018, "BSTAR": 0.0012752511, "MEAN_MOTION_DOT": 3.776e-05, "MEAN_MOTION_DDOT": 0}, "tle": {"line1": "1 30040U 99025NR  25352.99979199  .00003776  00000+0  12753-2 0  9993", "line2": "2 30040  98.2328   9.1110 0032326 293.7752 127.0817 14.37176564980180"}}, "geometry": {"type": "Point", "coordinates": [82.07260932394061, -81.33728493617602]}}, {"type": "Feature", "properties": {"norad_id": 30041, "name": "FENGYUN 1C DEB", "group": "fengyun-1c-debris", "lat": -60.60485957522321, "lon": 118.30697671440657, "alt_km": 860.4838947322096, "timestamp": "2025-12-20T03:42:47.666435+00:00", "meta": {"OBJECT_NAME": "FENGYUN 1C DEB", "OBJECT_ID": "1999-025NS", "EPOCH": "2025-12-19T13:01:10.304832", "MEAN_MOTION": 14.13196834, "ECCENTRICITY": 0.0035073, "INCLINATION": 99.4671, "RA_OF_ASC_NODE": 100.4313, "ARG_OF_PERICENTER": 198.2792, "MEAN_ANOMALY": 226.2798, "EPHEMERIS_TYPE": 0, "CLASSIFICATION_TYPE": "U", "NORAD_CAT_ID": 30041, "ELEMENT_SET_NO": 999, "REV_AT_EPOCH": 97383, "BSTAR": 0.0003506, "MEAN_MOTION_DOT": 6.11e-06, "MEAN_MOTION_DDOT": 0}, "tle": {"line1": "1 30041U 99025NS  25353.54248038  .00000611  00000+0  35060-3 0  9999", "line2": "2 30041  99.4671 100.4313 0035073 198.2792 226.2798 14.13196834973830"}}, "geometry": {"type": "Point", "coordinates": [118.30697671440657, -60.60485957522321]}}, {"type": "Feature", "properties": {"norad_id": 30043, "name": "FENGYUN 1C DEB", "group": "fengyun-1c-debris", "lat": -49.24620219989692, "lon": -98.16553203889505, "alt_km": 919.0727681597564, "timestamp": "2025-12-20T03:42:47.666445+00:00", "meta": {"OBJECT_NAME": "FENGYUN 1C DEB", "OBJECT_ID": "1999-025NU", "EPOCH": "2025-12-19T19:55:00.501024", "MEAN_MOTION": 14.23607082, "ECCENTRICITY": 0.0283562, "INCLINATION": 98.6278, "RA_OF_ASC_NODE": 91.6629, "ARG_OF_PERICENTER": 110.4105, "MEAN_ANOMALY": 252.7768, "EPHEMERIS_TYPE": 0, "CLASSIFICATION_TYPE": "U", "NORAD_CAT_ID": 30043, "ELEMENT_SET_NO": 999, "REV_AT_EPOCH": 97446, "BSTAR": 0.00049868, "MEAN_MOTION_DOT": 1.675e-05, "MEAN_MOTION_DDOT": 0}, "tle": {"line1": "1 30043U 99025NU  25353.82986691  .00001675  00000+0  49868-3 0  9998", "line2": "2 30043  98.6278  91.6629 0283562 110.4105 252.7768 14.23607082974463"}}, "geometry": {"type": "Point", "coordinates": [-98.16553203889505, -49.24620219989692]}}, {"type": "Feature", "properties": {"norad_id": 30044, "name": "FENGYUN 1C DEB", "group": "fengyun-1c-debris", "lat": 65.7941324885556, "lon": 113.00818096563646, "alt_km": 668.2521069073091, "timestamp": "2025-12-20T03:42:47.666455+00:00", "meta": {"OBJECT_NAME": "FENGYUN 1C DEB", "OBJECT_ID": "1999-025NV", "EPOCH": "2025-12-19T12:17:51.213120", "MEAN_MOTION": 14.50736404, "ECCENTRICITY": 0.0079867, "INCLINATION": 98.2123, "RA_OF_ASC_NODE": 273.6427, "ARG_OF_PERICENTER": 146.1619, "MEAN_ANOMALY": 214.4709, "EPHEMERIS_TYPE": 0, "CLASSIFICATION_TYPE": "U", "NORAD_CAT_ID": 30044, "ELEMENT_SET_NO": 999, "REV_AT_EPOCH": 98137, "BSTAR": 0.00102, "MEAN_MOTION_DOT": 4.136e-05, "MEAN_MOTION_DDOT": 0}, "tle": {"line1": "1 30044U 99025NV  25353.51239830  .00004136  00000+0  10200-2 0  9993", "line2": "2 30044  98.2123 273.6427 0079867 146.1619 214.4709 14.50736404981373"}}, "geometry": {"type": "Point", "coordinates": [113.00818096563646, 65.7941324885556]}}, {"type": "Feature", "properties": {"norad_id": 30045, "name": "FENGYUN 1C DEB", "group": "fengyun-1c-debris", "lat": -41.97341156201556, "lon": -158.34588368840943, "alt_km": 869.7250320724743, "timestamp": "2025-12-20T03:42:47.666466+00:00", "meta": {"OBJECT_NAME": "FENGYUN 1C DEB", "OBJECT_ID": "1999-025NW", "EPOCH": "2025-12-19T01:35:42.952704", "MEAN_MOTION": 14.21656282, "ECCENTRICITY": 0.00943363, "INCLINATION": 99.1784, "RA_OF_ASC_NODE": 28.8857, "ARG_OF_PERICENTER": 95.4563, "MEAN_ANOMALY": 319.7348, "EPHEMERIS_TYPE": 0, "CLASSIFICATION_TYPE": "U", "NORAD_CAT_ID": 30045, "ELEMENT_SET_NO": 999, "REV_AT_EPOCH": 96778, "BSTAR": 0.0015418218, "MEAN_MOTION_DOT": 3.495e-05, "MEAN_MOTION_DDOT": 0}, "tle": {"line1": "1 30045U 99025NW  25353.06646936  .00003495  00000+0  15418-2 0  9996", "line2": "2 30045  99.1784  28.8857 0094336  95.4563 319.7348 14.21656282967786"}}, "geometry": {"type": "Point", "coordinates": [-158.34588368840943, -41.97341156201556]}}, {"type": "Feature", "properties": {"norad_id": 30047, "name": "FENGYUN 1C DEB", "group": "fengyun-1c-debris", "lat": 27.440020085433616, "lon": -23.09449963942841, "alt_km": 992.0317867872645, "timestamp": "2025-12-20T03:42:47.666476+00:00", "meta": {"OBJECT_NAME": "FENGYUN 1C DEB", "OBJECT_ID": "1999-025NY", "EPOCH": "2025-12-18T09:46:54.786720", "MEAN_MOTION": 13.94365122, "ECCENTRICITY": 0.01256865, "INCLINATION": 99.9192, "RA_OF_ASC_NODE": 149.8175, "ARG_OF_PERICENTER": 307.6769, "MEAN_ANOMALY": 79.528, "EPHEMERIS_TYPE": 0, "CLASSIFICATION_TYPE": "U", "NORAD_CAT_ID": 30047, "ELEMENT_SET_NO": 999, "REV_AT_EPOCH": 95995, "BSTAR": 0.00045619092, "MEAN_MOTION_DOT": 5.97e-06, "MEAN_MOTION_DDOT": 0}, "tle": {"line1": "1 30047U 99025NY  25352.40757855  .00000597  00000+0  45619-3 0  9995", "line2": "2 30047  99.9192 149.8175 0125686 307.6769  79.5280 13.94365122959950"}}, "geometry": {"type": "Point", "coordinates": [-23.09449963942841, 27.440020085433616]}}]}